OBJECT_NAME,OBJECT_ID,EPOCH,MEAN_MOTION,ECCENTRICITY,INCLINATION,RA_OF_ASC_NODE,ARG_OF_PERICENTER,MEAN_ANOMALY,EPHEMERIS_TYPE,CLASSIFICATION_TYPE,NORAD_CAT_ID,ELEMENT_SET_NO,REV_AT_EPOCH,BSTAR,MEAN_MOTION_DOT,MEAN_MOTION_DDOT
STARLINK-11712 [DTC],2025-111N,2026-07-19T05:40:45.578496,15.70823646,.00037583,43.0001,261.3193,294.8018,65.2459,0,U,64135,999,6732,.68123524E-3,.87855E-3,0
STARLINK-34254,2025-111P,2026-07-18T23:07:45.734592,15.27571906,.00016398,43.0013,56.1961,272.9371,87.1293,0,U,64136,999,6554,.43979123E-3,.11857E-3,0
STARLINK-34129,2025-111R,2026-07-19T00:05:07.399968,15.27560804,.0001197,43.0026,56.4936,264.3228,95.7487,0,U,64138,999,6559,.38738787E-3,.10407E-3,0
STARLINK-34212,2025-111S,2026-07-18T13:57:37.374912,15.27585486,.0001175,43.0009,58.4861,271.3671,88.7046,0,U,64139,999,6548,.213E-3,.5605E-4,0
STARLINK-34149,2025-111T,2026-07-18T22:03:12.588480,15.27587403,.00009747,43.0028,56.7146,256.4286,103.6457,0,U,64140,999,6553,.21625494E-3,.5695E-4,0
STARLINK-34054,2025-111U,2026-07-18T15:42:52.911648,15.27584730,.0001287,43.0026,58.1730,267.7336,92.3369,0,U,64141,999,6549,.21879171E-3,.5764E-4,0
STARLINK-34195,2025-111V,2026-07-18T23:17:00.464064,15.27589867,.0001397,43.0012,56.2404,274.3570,85.7122,0,U,64142,999,6554,.31390017E-3,.8388E-4,0
STARLINK-34133,2025-111W,2026-07-19T00:45:36.801216,15.27586951,.00008955,42.9994,55.8426,268.1278,91.9471,0,U,64143,999,6555,.18319108E-3,.4783E-4,0
STARLINK-34181,2025-111X,2026-07-18T22:08:45.714048,15.27583794,.00012914,43.0030,56.7438,264.0690,96.0015,0,U,64144,999,6553,.25218452E-3,.6685E-4,0
STARLINK-34186,2025-111Y,2026-07-18T23:55:51.826368,15.27591803,.00018361,43.0043,56.4443,270.7083,89.3558,0,U,64145,999,6554,.44570373E-3,.12027E-3,0
STARLINK-34314,2025-112A,2026-07-19T02:57:50.770656,15.05658690,.00018508,97.2837,248.8092,112.8814,247.2609,0,U,64146,999,6308,.11718609E-3,.1635E-4,0
STARLINK-33926,2025-112B,2026-07-19T02:21:58.131936,15.05667293,.0002376,97.2817,248.8439,130.5629,229.5806,0,U,64147,999,6308,.24925112E-3,.3544E-4,0
STARLINK-34213,2025-112C,2026-07-19T03:09:48.402144,15.05656967,.00017078,97.2842,248.7988,124.7793,235.3596,0,U,64148,999,6308,.10302909E-3,.1431E-4,0
STARLINK-33924,2025-112D,2026-07-19T03:21:46.066464,15.05659145,.00014849,97.2824,248.7864,99.8862,260.2533,0,U,64149,999,6308,.13779516E-3,.1933E-4,0
STARLINK-34209,2025-112E,2026-07-19T02:10:00.244704,15.05661232,.00025256,97.2829,248.8530,108.0201,252.1302,0,U,64150,999,6308,.1791046E-3,.253E-4,0
STARLINK-34338,2025-112F,2026-07-19T03:33:44.741664,15.05660256,.00018078,97.2836,248.9316,93.6888,266.4546,0,U,64151,999,6309,.16248858E-3,.229E-4,0
STARLINK-34348,2025-112G,2026-07-19T02:45:53.190144,15.05656195,.0001731,97.2825,248.8226,109.1339,251.0076,0,U,64152,999,6308,.76135747E-4,.1043E-4,0
STARLINK-34345,2025-112H,2026-07-19T02:33:55.571616,15.05658678,.00012904,97.2815,248.8333,128.9851,231.1492,0,U,64153,999,6308,.13172774E-3,.1845E-4,0
STARLINK-33945,2025-112J,2026-07-19T03:58:30.466560,15.05660020,.00008622,97.2828,257.3884,129.0832,231.0473,0,U,64154,999,6364,.16897674E-3,.2383E-4,0
STARLINK-34346,2025-112K,2026-07-19T02:13:58.643904,15.05685097,.00015208,97.2831,248.8583,115.6994,244.4391,0,U,64155,999,6308,.60104056E-3,.8634E-4,0
STARLINK-34277,2025-112L,2026-07-19T03:01:49.184544,15.05656447,.00021633,97.2837,248.8156,92.8998,267.2477,0,U,64156,999,6308,-.84373524E-4,-.1274E-4,0
STARLINK-34166,2025-112N,2026-07-19T03:25:46.414848,15.05664177,.00022436,97.2828,248.7895,118.1478,241.9977,0,U,64158,999,6308,.25522413E-3,.3629E-4,0
STARLINK-34344,2025-112P,2026-07-19T03:13:47.680896,15.05659277,.00021579,97.2830,248.8016,116.6866,243.4582,0,U,64159,999,6308,.12249015E-3,.1712E-4,0
STARLINK-34339,2025-112Q,2026-07-19T02:49:52.296096,15.05657269,.00020395,97.2829,248.8266,113.3249,246.8193,0,U,64160,999,6308,-.397255E-6,-.62E-6,0
STARLINK-34341,2025-112R,2026-07-19T02:25:57.212832,15.05660404,.00017156,97.2813,248.8485,112.3263,247.8147,0,U,64161,999,6308,.19529713E-3,.2763E-4,0
STARLINK-34317,2025-112S,2026-07-19T03:37:43.519296,15.05661249,.00009368,97.2824,248.9320,138.5511,221.5787,0,U,64162,999,6309,.15078741E-3,.2121E-4,0
STARLINK-34340,2025-112T,2026-07-19T03:05:49.232256,15.05658598,.00022515,97.2832,248.8102,132.7222,227.4196,0,U,64163,999,6308,.10970402E-3,.1527E-4,0
STARLINK-34263,2025-112U,2026-07-19T02:53:51.860832,15.05656800,.00024516,97.2837,248.8234,100.0895,260.0609,0,U,64164,999,6308,.84032145E-4,.1157E-4,0
STARLINK-33793,2025-112V,2026-07-19T02:41:54.240576,15.05658662,.00015937,97.2822,248.8343,99.2621,260.8787,0,U,64165,999,6308,.1300541E-3,.1821E-4,0
STARLINK-34313,2025-112W,2026-07-19T02:29:56.412960,15.05660541,.00016267,97.2820,248.8475,128.4236,231.7138,0,U,64166,999,6308,.16107688E-3,.2269E-4,0
