[ {"name": "STARLINK-11712 [DTC]", "line1": "1 64135U 25111N   26200.23663864  .00087855  00000+0  68124-3 0  9993", "line2": "2 64135  43.0001 261.3193 0003758 294.8018  65.2459 15.70823646 67320"}, {"name": "STARLINK-34254", "line1": "1 64136U 25111P   26199.96372378  .00011857  00000+0  43979-3 0  9998", "line2": "2 64136  43.0013  56.1961 0001639 272.9371  87.1293 15.27571906 65544"}, {"name": "STARLINK-34129", "line1": "1 64138U 25111R   26200.00355787  .00010407  00000+0  38739-3 0  9991", "line2": "2 64138  43.0026  56.4936 0001197 264.3228  95.7487 15.27560804 65590"}, {"name": "STARLINK-34212", "line1": "1 64139U 25111S   26199.58168258  .00005605  00000+0  21300-3 0  9997", "line2": "2 64139  43.0009  58.4861 0001175 271.3671  88.7046 15.27585486 65481"}, {"name": "STARLINK-34149", "line1": "1 64140U 25111T   26199.91889570  .00005695  00000+0  21625-3 0  9992", "line2": "2 64140  43.0028  56.7146 0000974 256.4286 103.6457 15.27587403 65533"}, {"name": "STARLINK-34054", "line1": "1 64141U 25111U   26199.65477907  .00005764  00000+0  21879-3 0  9999", "line2": "2 64141  43.0026  58.1730 0001287 267.7336  92.3369 15.27584730 65497"}, {"name": "STARLINK-34195", "line1": "1 64142U 25111V   26199.97014426  .00008388  00000+0  31390-3 0  9992", "line2": "2 64142  43.0012  56.2404 0001397 274.3570  85.7122 15.27589867 65541"}, {"name": "STARLINK-34133", "line1": "1 64143U 25111W   26200.03167594  .00004783  00000+0  18319-3 0  9999", "line2": "2 64143  42.9994  55.8426 0000895 268.1278  91.9471 15.27586951 65554"}, {"name": "STARLINK-34181", "line1": "1 64144U 25111X   26199.92275132  .00006685  00000+0  25218-3 0  9992", "line2": "2 64144  43.0030  56.7438 0001291 264.0690  96.0015 15.27583794 65535"}, {"name": "STARLINK-34186", "line1": "1 64145U 25111Y   26199.99712762  .00012027  00000+0  44570-3 0  9994", "line2": "2 64145  43.0043  56.4443 0001836 270.7083  89.3558 15.27591803 65546"}, {"name": "STARLINK-34314", "line1": "1 64146U 25112A   26200.12350429  .00001635  00000+0  11719-3 0  9994", "line2": "2 64146  97.2837 248.8092 0001850 112.8814 247.2609 15.05658690 63083"}, {"name": "STARLINK-33926", "line1": "1 64147U 25112B   26200.09858949  .00003544  00000+0  24925-3 0  9995", "line2": "2 64147  97.2817 248.8439 0002376 130.5629 229.5806 15.05667293 63083"}, {"name": "STARLINK-34213", "line1": "1 64148U 25112C   26200.13181021  .00001431  00000+0  10303-3 0  9999", "line2": "2 64148  97.2842 248.7988 0001707 124.7793 235.3596 15.05656967 63081"}, {"name": "STARLINK-33924", "line1": "1 64149U 25112D   26200.14011651  .00001933  00000+0  13780-3 0  9991", "line2": "2 64149  97.2824 248.7864 0001484  99.8862 260.2533 15.05659145 63085"}, {"name": "STARLINK-34209", "line1": "1 64150U 25112E   26200.09028061  .00002530  00000+0  17910-3 0  9993", "line2": "2 64150  97.2829 248.8530 0002525 108.0201 252.1302 15.05661232 63084"}, {"name": "STARLINK-34338", "line1": "1 64151U 25112F   26200.14843451  .00002290  00000+0  16249-3 0  9995", "line2": "2 64151  97.2836 248.9316 0001807  93.6888 266.4546 15.05660256 63092"}, {"name": "STARLINK-34348", "line1": "1 64152U 25112G   26200.11519896  .00001043  00000+0  76136-4 0  9993", "line2": "2 64152  97.2825 248.8226 0001731 109.1339 251.0076 15.05656195 63084"}, {"name": "STARLINK-34345", "line1": "1 64153U 25112H   26200.10689319  .00001845  00000+0  13173-3 0  9992", "line2": "2 64153  97.2815 248.8333 0001290 128.9851 231.1492 15.05658678 63080"}, {"name": "STARLINK-33945", "line1": "1 64154U 25112J   26200.16563040  .00002383  00000+0  16898-3 0  9996", "line2": "2 64154  97.2828 257.3884 0000862 129.0832 231.0473 15.05660020 63640"}, {"name": "STARLINK-34346", "line1": "1 64155U 25112K   26200.09303986  .00008634  00000+0  60104-3 0  9994", "line2": "2 64155  97.2831 248.8583 0001520 115.6994 244.4391 15.05685097 63084"}, {"name": "STARLINK-34277", "line1": "1 64156U 25112L   26200.12626371 -.00001274  00000+0 -84374-4 0  9996", "line2": "2 64156  97.2837 248.8156 0002163  92.8998 267.2477 15.05656447 63086"}, {"name": "STARLINK-34166", "line1": "1 64158U 25112N   26200.14289832  .00003629  00000+0  25522-3 0  9990", "line2": "2 64158  97.2828 248.7895 0002243 118.1478 241.9977 15.05664177 63084"}, {"name": "STARLINK-34344", "line1": "1 64159U 25112P   26200.13457964  .00001712  00000+0  12249-3 0  9996", "line2": "2 64159  97.2830 248.8016 0002157 116.6866 243.4582 15.05659277 63086"}, {"name": "STARLINK-34339", "line1": "1 64160U 25112Q   26200.11796639 -.00000062  00000+0 -39725-6 0  9991", "line2": "2 64160  97.2829 248.8266 0002039 113.3249 246.8193 15.05657269 63085"}, {"name": "STARLINK-34341", "line1": "1 64161U 25112R   26200.10135663  .00002763  00000+0  19530-3 0  9992", "line2": "2 64161  97.2813 248.8485 0001715 112.3263 247.8147 15.05660404 63082"}, {"name": "STARLINK-34317", "line1": "1 64162U 25112S   26200.15119814  .00002121  00000+0  15079-3 0  9990", "line2": "2 64162  97.2824 248.9320 0000936 138.5511 221.5787 15.05661249 63092"}, {"name": "STARLINK-34340", "line1": "1 64163U 25112T   26200.12904204  .00001527  00000+0  10970-3 0  9997", "line2": "2 64163  97.2832 248.8102 0002251 132.7222 227.4196 15.05658598 63087"}, {"name": "STARLINK-34263", "line1": "1 64164U 25112U   26200.12073913  .00001157  00000+0  84032-4 0  9992", "line2": "2 64164  97.2837 248.8234 0002451 100.0895 260.0609 15.05656800 63081"}, {"name": "STARLINK-33793", "line1": "1 64165U 25112V   26200.11243334  .00001821  00000+0  13005-3 0  9997", "line2": "2 64165  97.2822 248.8343 0001593  99.2621 260.8787 15.05658662 63082"}, {"name": "STARLINK-34313", "line1": "1 64166U 25112W   26200.10412515  .00002269  00000+0  16108-3 0  9990", "line2": "2 64166  97.2820 248.8475 0001626 128.4236 231.7138 15.05660541 63087"}]